{
  "type": "FeatureCollection",
  "features": [
    {
      "type": "Feature",
      "properties": {
        "norad_id": 34003,
        "name": "COSMOS 2251 DEB",
        "group": "cosmos-2251-debris",
        "lat": -63.83474485138016,
        "lon": 133.66276928551125,
        "alt_km": 1108.4060514962375,
        "timestamp": "2025-12-16T21:38:57.568555+00:00",
        "meta_object_name": "COSMOS 2251 DEB",
        "meta_object_id": "1993-036GN",
        "meta_epoch": "2025-12-14T21:36:56.499552",
        "meta_mean_motion": 13.8416537,
        "meta_eccentricity": 0.0274563,
        "meta_inclination": 74.0769,
        "meta_ra_of_asc_node": 281.5067,
        "meta_arg_of_pericenter": 33.033,
        "meta_mean_anomaly": 328.7613,
        "meta_ephemeris_type": 0,
        "meta_classification_type": "U",
        "meta_norad_cat_id": 34003,
        "meta_element_set_no": 999,
        "meta_rev_at_epoch": 84455,
        "meta_bstar": 0.0016495834,
        "meta_mean_motion_dot": 2.44e-05,
        "meta_mean_motion_ddot": 0,
        "tle_line1": "1 34003U 93036GN  25348.90065393  .00002440  00000+0  16496-2 0  9995",
        "tle_line2": "2 34003  74.0769 281.5067 0274563  33.0330 328.7613 13.84165370844557"
      },
      "geometry": {
        "type": "Point",
        "coordinates": [
          133.66276928551125,
          -63.83474485138016
        ]
      }
    },
    {
      "type": "Feature",
      "properties": {
        "norad_id": 34004,
        "name": "COSMOS 2251 DEB",
        "group": "cosmos-2251-debris",
        "lat": 37.422801417826925,
        "lon": 112.65103452030804,
        "alt_km": 749.3953125700318,
        "timestamp": "2025-12-16T21:38:57.568565+00:00",
        "meta_object_name": "COSMOS 2251 DEB",
        "meta_object_id": "1993-036GP",
        "meta_epoch": "2025-12-16T06:05:18.633696",
        "meta_mean_motion": 14.49044206,
        "meta_eccentricity": 0.00334183,
        "meta_inclination": 74.0348,
        "meta_ra_of_asc_node": 306.5198,
        "meta_arg_of_pericenter": 318.2586,
        "meta_mean_anomaly": 41.6024,
        "meta_ephemeris_type": 0,
        "meta_classification_type": "U",
        "meta_norad_cat_id": 34004,
        "meta_element_set_no": 999,
        "meta_rev_at_epoch": 88081,
        "meta_bstar": 0.00092835072,
        "meta_mean_motion_dot": 3.522e-05,
        "meta_mean_motion_ddot": 0,
        "tle_line1": "1 34004U 93036GP  25350.25368789  .00003522  00000+0  92835-3 0  9996",
        "tle_line2": "2 34004  74.0348 306.5198 0033418 318.2586  41.6024 14.49044206880819"
      },
      "geometry": {
        "type": "Point",
        "coordinates": [
          112.65103452030804,
          37.422801417826925
        ]
      }
    },
    {
      "type": "Feature",
      "properties": {
        "norad_id": 34005,
        "name": "COSMOS 2251 DEB",
        "group": "cosmos-2251-debris",
        "lat": -69.15027959966085,
        "lon": 157.26333061713498,
        "alt_km": 752.892516150665,
        "timestamp": "2025-12-16T21:38:57.568575+00:00",
        "meta_object_name": "COSMOS 2251 DEB",
        "meta_object_id": "1993-036GQ",
        "meta_epoch": "2025-12-16T02:33:50.390208",
        "meta_mean_motion": 14.40306767,
        "meta_eccentricity": 0.00209611,
        "meta_inclination": 74.044,
        "meta_ra_of_asc_node": 207.4265,
        "meta_arg_of_pericenter": 325.0524,
        "meta_mean_anomaly": 157.0747,
        "meta_ephemeris_type": 0,
        "meta_classification_type": "U",
        "meta_norad_cat_id": 34005,
        "meta_element_set_no": 999,
        "meta_rev_at_epoch": 88427,
        "meta_bstar": 0.00010194271,
        "meta_mean_motion_dot": 2.97e-06,
        "meta_mean_motion_ddot": 0,
        "tle_line1": "1 34005U 93036GQ  25350.10683322  .00000297  00000+0  10194-3 0  9998",
        "tle_line2": "2 34005  74.0440 207.4265 0020961 325.0524 157.0747 14.40306767884276"
      },
      "geometry": {
        "type": "Point",
        "coordinates": [
          157.26333061713498,
          -69.15027959966085
        ]
      }
    },
    {
      "type": "Feature",
      "properties": {
        "norad_id": 34006,
        "name": "COSMOS 2251 DEB",
        "group": "cosmos-2251-debris",
        "lat": -67.27967371933752,
        "lon": 91.83112877620017,
        "alt_km": 596.0354870476413,
        "timestamp": "2025-12-16T21:38:57.568586+00:00",
        "meta_object_name": "COSMOS 2251 DEB",
        "meta_object_id": "1993-036GR",
        "meta_epoch": "2025-12-16T04:52:27.283584",
        "meta_mean_motion": 14.94999161,
        "meta_eccentricity": 0.00113904,
        "meta_inclination": 74.0528,
        "meta_ra_of_asc_node": 136.3084,
        "meta_arg_of_pericenter": 78.1198,
        "meta_mean_anomaly": 48.1148,
        "meta_ephemeris_type": 0,
        "meta_classification_type": "U",
        "meta_norad_cat_id": 34006,
        "meta_element_set_no": 999,
        "meta_rev_at_epoch": 88720,
        "meta_bstar": 0.0023278286,
        "meta_mean_motion_dot": 0.00025547,
        "meta_mean_motion_ddot": 0,
        "tle_line1": "1 34006U 93036GR  25350.20309356  .00025547  00000+0  23278-2 0  9993",
        "tle_line2": "2 34006  74.0528 136.3084 0011390  78.1198  48.1148 14.94999161887208"
      },
      "geometry": {
        "type": "Point",
        "coordinates": [
          91.83112877620017,
          -67.27967371933752
        ]
      }
    },
    {
      "type": "Feature",
      "properties": {
        "norad_id": 34007,
        "name": "COSMOS 2251 DEB",
        "group": "cosmos-2251-debris",
        "lat": 44.19962936340865,
        "lon": 142.70295319386437,
        "alt_km": 644.3954084900397,
        "timestamp": "2025-12-16T21:38:57.568596+00:00",
        "meta_object_name": "COSMOS 2251 DEB",
        "meta_object_id": "1993-036GS",
        "meta_epoch": "2025-12-16T07:55:56.507232",
        "meta_mean_motion": 14.64812122,
        "meta_eccentricity": 0.00442524,
        "meta_inclination": 74.019,
        "meta_ra_of_asc_node": 339.9841,
        "meta_arg_of_pericenter": 113.7712,
        "meta_mean_anomaly": 246.8106,
        "meta_ephemeris_type": 0,
        "meta_classification_type": "U",
        "meta_norad_cat_id": 34007,
        "meta_element_set_no": 999,
        "meta_rev_at_epoch": 89132,
        "meta_bstar": 0.0004839154,
        "meta_mean_motion_dot": 2.589e-05,
        "meta_mean_motion_ddot": 0,
        "tle_line1": "1 34007U 93036GS  25350.33051513  .00002589  00000+0  48392-3 0  9993",
        "tle_line2": "2 34007  74.0190 339.9841 0044252 113.7712 246.8106 14.64812122891324"
      },
      "geometry": {
        "type": "Point",
        "coordinates": [
          142.70295319386437,
          44.19962936340865
        ]
      }
    },
    {
      "type": "Feature",
      "properties": {
        "norad_id": 34008,
        "name": "COSMOS 2251 DEB",
        "group": "cosmos-2251-debris",
        "lat": 72.84156154100974,
        "lon": 30.91429221468481,
        "alt_km": 784.2088170351626,
        "timestamp": "2025-12-16T21:38:57.568606+00:00",
        "meta_object_name": "COSMOS 2251 DEB",
        "meta_object_id": "1993-036GT",
        "meta_epoch": "2025-12-16T08:37:53.379840",
        "meta_mean_motion": 14.33148953,
        "meta_eccentricity": 0.00244439,
        "meta_inclination": 74.0344,
        "meta_ra_of_asc_node": 323.9023,
        "meta_arg_of_pericenter": 318.5051,
        "meta_mean_anomaly": 207.5846,
        "meta_ephemeris_type": 0,
        "meta_classification_type": "U",
        "meta_norad_cat_id": 34008,
        "meta_element_set_no": 999,
        "meta_rev_at_epoch": 88016,
        "meta_bstar": 0.0001240887,
        "meta_mean_motion_dot": 3.15e-06,
        "meta_mean_motion_ddot": 0,
        "tle_line1": "1 34008U 93036GT  25350.35964560  .00000315  00000+0  12409-3 0  9996",
        "tle_line2": "2 34008  74.0344 323.9023 0024443 318.5051 207.5846 14.33148953880167"
      },
      "geometry": {
        "type": "Point",
        "coordinates": [
          30.91429221468481,
          72.84156154100974
        ]
      }
    },
    {
      "type": "Feature",
      "properties": {
        "norad_id": 34009,
        "name": "COSMOS 2251 DEB",
        "group": "cosmos-2251-debris",
        "lat": 55.592878158053885,
        "lon": 124.62698986867181,
        "alt_km": 772.9855197087163,
        "timestamp": "2025-12-16T21:38:57.568616+00:00",
        "meta_object_name": "COSMOS 2251 DEB",
        "meta_object_id": "1993-036GU",
        "meta_epoch": "2025-12-16T08:14:08.496960",
        "meta_mean_motion": 14.33225136,
        "meta_eccentricity": 0.0026644,
        "meta_inclination": 74.0371,
        "meta_ra_of_asc_node": 330.351,
        "meta_arg_of_pericenter": 38.8512,
        "meta_mean_anomaly": 79.1228,
        "meta_ephemeris_type": 0,
        "meta_classification_type": "U",
        "meta_norad_cat_id": 34009,
        "meta_element_set_no": 999,
        "meta_rev_at_epoch": 87997,
        "meta_bstar": 0.00014125322,
        "meta_mean_motion_dot": 3.64e-06,
        "meta_mean_motion_ddot": 0,
        "tle_line1": "1 34009U 93036GU  25350.34315390  .00000364  00000+0  14125-3 0  9998",
        "tle_line2": "2 34009  74.0371 330.3510 0026644  38.8512  79.1228 14.33225136879973"
      },
      "geometry": {
        "type": "Point",
        "coordinates": [
          124.62698986867181,
          55.592878158053885
        ]
      }
    }
  ]
}